OBJECT_NAME,OBJECT_ID,EPOCH,MEAN_MOTION,ECCENTRICITY,INCLINATION,RA_OF_ASC_NODE,ARG_OF_PERICENTER,MEAN_ANOMALY,EPHEMERIS_TYPE,CLASSIFICATION_TYPE,NORAD_CAT_ID,ELEMENT_SET_NO,REV_AT_EPOCH,BSTAR,MEAN_MOTION_DOT,MEAN_MOTION_DDOT
CAPELLA-15 (ACADIA-5),2024-149CE,2026-05-18T16:30:58.758048,14.92481624,.0004654,97.6781,212.3250,159.6582,200.4824,0,U,60544,999,9545,.865E-4,.832E-5,0
HAWK-10B,2024-149CF,2026-05-18T11:32:42.190368,14.96409372,.0005481,97.6815,214.2890,175.8551,184.2717,0,U,60545,999,9554,.11153E-3,.1207E-4,0
ICEYE-X39,2024-149CG,2026-05-18T10:54:26.329824,14.99705254,.000261,97.6808,215.8834,173.7592,186.3664,0,U,60546,999,9566,.10131E-3,.1191E-4,0
UMBRA-10,2024-149CH,2026-05-18T15:48:43.746624,15.17057072,.000212,97.6972,225.4084,102.6751,257.4719,0,U,60547,999,9625,.48659E-3,.9566E-4,0
ICEYE-X33,2024-149CJ,2026-05-18T18:26:37.021056,15.00911294,.0000265,97.7189,218.0869,315.7158,44.4044,0,U,60548,999,9579,.26844E-3,.3359E-4,0
ICEYE-X40,2024-149CK,2026-05-18T15:25:03.005760,14.97844238,.0005153,97.6822,215.6147,155.2797,204.8673,0,U,60549,999,9565,.96486E-4,.1077E-4,0
SATELIOT_1,2024-149CL,2026-05-18T10:26:59.296128,14.97941555,.0007139,97.6763,214.8306,158.2199,201.9328,0,U,60550,999,9561,.15561E-3,.1777E-4,0
BRO-14,2024-149CM,2026-05-18T13:37:08.647680,14.96117485,.0006509,97.6880,214.8773,182.0875,178.0320,0,U,60551,999,9556,.80082E-4,.844E-5,0
SATELIOT_3,2024-149CN,2026-05-18T11:27:57.136896,14.97915367,.0005508,97.6817,215.6360,170.1045,190.0287,0,U,60552,999,9563,.11446E-3,.1291E-4,0
BRO-15,2024-149CP,2026-05-18T03:32:57.491232,14.96070531,.0008201,97.6804,214.0953,177.4572,182.6693,0,U,60553,999,9551,.74528E-4,.781E-5,0
UM5-RIBAT,2024-149CQ,2026-05-18T11:21:13.540896,15.00889201,.0003498,97.6658,216.6741,108.9540,251.2064,0,U,60554,999,9573,.13931E-3,.1714E-4,0
UM5-EOSAT,2024-149CR,2026-05-18T04:20:59.167104,15.01294447,.0007228,97.6656,217.2912,202.9784,157.1117,0,U,60555,999,9571,.15661E-3,.1955E-4,0
LASARSAT,2024-247Q,2026-05-18T12:00:04.589568,15.44392444,.0005415,44.9758,68.7838,160.1412,199.9689,0,U,62391,999,7872,.4096E-3,.19038E-3,0
CROCUBE,2024-247T,2026-05-18T05:00:12.744576,15.45997443,.0005074,44.9731,68.2037,161.9433,198.1638,0,U,62394,999,7870,.43364E-3,.21336E-3,0
TEVEL2-4,2025-052D,2026-05-18T10:30:01.271808,15.33483313,.000234,97.3937,34.8009,160.0524,200.0811,0,U,63213,999,6555,.31842E-3,.1023E-3,0
TEVEL2-5,2025-052E,2026-05-18T15:36:52.793856,15.33331220,.0002302,97.3934,34.9700,158.8541,201.2797,0,U,63214,999,6558,.34047E-3,.10892E-3,0
TEVEL2-6,2025-052F,2026-05-18T11:11:40.505856,15.33288647,.0002397,97.3937,34.7706,161.5493,198.5837,0,U,63215,999,6555,.33767E-3,.10787E-3,0
TEVEL2-1,2025-052H,2026-05-17T16:51:06.864192,15.32779437,.00017748,97.3919,33.6655,176.5909,183.5346,0,U,63217,999,6542,.33738546E-3,.10606E-3,0
TEVEL2-3,2025-052J,2026-05-18T03:42:54.643968,15.32837184,.0001816,97.3915,34.1361,174.9518,185.1743,0,U,63218,999,6549,.30289E-3,.953E-4,0
TEVEL2-2,2025-052K,2026-05-18T05:23:49.920576,15.32796479,.000176,97.3912,34.1896,176.9146,183.2107,0,U,63219,999,6550,.29999E-3,.9425E-4,0
TEVEL2-9,2025-052AD,2026-05-18T10:13:21.444096,15.30913495,.0004238,97.3973,33.8279,235.7490,124.3350,0,U,63237,999,6547,.29029E-3,.8597E-4,0
TEVEL2-7,2025-052AE,2026-05-18T04:47:50.634240,15.30638211,.0004394,97.3976,33.5307,237.4810,122.6007,0,U,63238,999,6543,.29451E-3,.8649E-4,0
TEVEL2-8,2025-052AF,2026-05-18T06:33:23.621184,15.30621046,.0004296,97.3977,33.5817,238.0378,122.0445,0,U,63239,999,6544,.28896E-3,.848E-4,0
HADES-ICM,2025-052BN,2026-05-18T11:26:57.793920,16.07070045,.0011435,97.3723,43.1467,187.6548,172.4561,0,U,63492,999,6611,.21526E-2,.1623772E-1,.18257E-2
FORESAIL-1 PRIME,2025-276DS,2026-05-18T03:30:49.273632,15.18400035,.0002301,97.4208,211.9724,170.4072,189.7206,0,U,66778,999,2584,.178E-3,.3594E-4,0
