CAPELLA-15 (ACADIA-5)   
1 60544U 24149CE  26138.68818007  .00000832  00000+0  86500-4 0  9992
2 60544  97.6781 212.3250 0004654 159.6582 200.4824 14.92481624 95453
HAWK-10B                
1 60545U 24149CF  26138.48104387  .00001207  00000+0  11153-3 0  9998
2 60545  97.6815 214.2890 0005481 175.8551 184.2717 14.96409372 95542
ICEYE-X39               
1 60546U 24149CG  26138.45447141  .00001191  00000+0  10131-3 0  9991
2 60546  97.6808 215.8834 0002610 173.7592 186.3664 14.99705254 95661
UMBRA-10                
1 60547U 24149CH  26138.65883966  .00009566  00000+0  48659-3 0  9993
2 60547  97.6972 225.4084 0002120 102.6751 257.4719 15.17057072 96258
ICEYE-X33               
1 60548U 24149CJ  26138.76848404  .00003359  00000+0  26844-3 0  9990
2 60548  97.7189 218.0869 0000265 315.7158  44.4044 15.00911294 95795
ICEYE-X40               
1 60549U 24149CK  26138.64239590  .00001077  00000+0  96486-4 0  9993
2 60549  97.6822 215.6147 0005153 155.2797 204.8673 14.97844238 95651
SATELIOT_1              
1 60550U 24149CL  26138.43540852  .00001777  00000+0  15561-3 0  9999
2 60550  97.6763 214.8306 0007139 158.2199 201.9328 14.97941555 95611
BRO-14                  
1 60551U 24149CM  26138.56746120  .00000844  00000+0  80082-4 0  9995
2 60551  97.6880 214.8773 0006509 182.0875 178.0320 14.96117485 95562
SATELIOT_3              
1 60552U 24149CN  26138.47774464  .00001291  00000+0  11446-3 0  9992
2 60552  97.6817 215.6360 0005508 170.1045 190.0287 14.97915367 95639
BRO-15                  
1 60553U 24149CP  26138.14788763  .00000781  00000+0  74528-4 0  9998
2 60553  97.6804 214.0953 0008201 177.4572 182.6693 14.96070531 95514
UM5-RIBAT               
1 60554U 24149CQ  26138.47307339  .00001714  00000+0  13931-3 0  9998
2 60554  97.6658 216.6741 0003498 108.9540 251.2064 15.00889201 95739
UM5-EOSAT               
1 60555U 24149CR  26138.18124036  .00001955  00000+0  15661-3 0  9997
2 60555  97.6656 217.2912 0007228 202.9784 157.1117 15.01294447 95719
LASARSAT                
1 62391U 24247Q   26138.50005312  .00019038  00000+0  40960-3 0  9998
2 62391  44.9758  68.7838 0005415 160.1412 199.9689 15.44392444 78725
CROCUBE                 
1 62394U 24247T   26138.20848084  .00021336  00000+0  43364-3 0  9994
2 62394  44.9731  68.2037 0005074 161.9433 198.1638 15.45997443 78702
TEVEL2-4                
1 63213U 25052D   26138.43751472  .00010230  00000+0  31842-3 0  9998
2 63213  97.3937  34.8009 0002340 160.0524 200.0811 15.33483313 65553
TEVEL2-5                
1 63214U 25052E   26138.65061104  .00010892  00000+0  34047-3 0  9993
2 63214  97.3934  34.9700 0002302 158.8541 201.2797 15.33331220 65580
TEVEL2-6                
1 63215U 25052F   26138.46644104  .00010787  00000+0  33767-3 0  9991
2 63215  97.3937  34.7706 0002397 161.5493 198.5837 15.33288647 65553
TEVEL2-1                
1 63217U 25052H   26137.70216278  .00010606  00000+0  33739-3 0  9995
2 63217  97.3919  33.6655 0001774 176.5909 183.5346 15.32779437 65428
TEVEL2-3                
1 63218U 25052J   26138.15479912  .00009530  00000+0  30289-3 0  9993
2 63218  97.3915  34.1361 0001816 174.9518 185.1743 15.32837184 65490
TEVEL2-2                
1 63219U 25052K   26138.22488334  .00009425  00000+0  29999-3 0  9999
2 63219  97.3912  34.1896 0001760 176.9146 183.2107 15.32796479 65504
TEVEL2-9                
1 63237U 25052AD  26138.42594264  .00008597  00000+0  29029-3 0  9994
2 63237  97.3973  33.8279 0004238 235.7490 124.3350 15.30913495 65470
TEVEL2-7                
1 63238U 25052AE  26138.19989160  .00008649  00000+0  29451-3 0  9999
2 63238  97.3976  33.5307 0004394 237.4810 122.6007 15.30638211 65437
TEVEL2-8                
1 63239U 25052AF  26138.27319006  .00008480  00000+0  28896-3 0  9990
2 63239  97.3977  33.5817 0004296 238.0378 122.0445 15.30621046 65441
HADES-ICM               
1 63492U 25052BN  26138.47705780  .01623772  18257-2  21526-2 0  9997
2 63492  97.3723  43.1467 0011435 187.6548 172.4561 16.07070045 66115
FORESAIL-1 PRIME        
1 66778U 25276DS  26138.14640363  .00003594  00000+0  17800-3 0  9992
2 66778  97.4208 211.9724 0002301 170.4072 189.7206 15.18400035 25848
